0 FENGYUN 1C DEB
1 31440U 99025BUC 13283.80165472  .00001828  00000-0  99619-3 0  4415
2 31440 099.0104 294.3859 0055936 138.5623 221.9811 14.12624297335848
0 FENGYUN 1C DEB
1 31440U 99025BUC 13286.98898689  .00002183  00000-0  11852-2 0  4428
2 31440 099.0097 297.5918 0055923 129.7959 230.8156 14.12634003336297
0 FENGYUN 1C DEB
1 31440U 99025BUC 13289.46800051  .00002659  00000-0  14375-2 0  4432
2 31440 099.0093 300.0846 0055896 122.8633 237.7936 14.12648512336646
0 FENGYUN 1C DEB
1 31440U 99025BUC 13291.80533157  .00002298  00000-0  12456-2 0  4441
2 31440 099.0092 302.4349 0055899 116.3523 244.3403 14.12660357336978
0 FENGYUN 1C DEB
1 31440U 99025BUC 13295.48835788  .00002269  00000-0  12298-2 0  4457
2 31440 099.0109 306.1356 0056009 106.1870 254.5308 14.12675670337491
